HIMAWARI-8              
1 40267U 14060A   24283.50092406 -.00000268  00000+0  00000+0 0  9990
2 40267   0.0213 168.1402 0000561  50.9541 120.5405  1.00273475 36583
